0 SL-8 R/B
1 21419U 91041B   13281.51676983  .00000075  00000-0  36176-4 0  3579
2 21419 074.0406 243.7656 0040347 140.7603 001.4704 14.33378911167338
0 SL-8 R/B
1 21419U 91041B   13283.18347116  .00000071  00000-0  34647-4 0  3585
2 21419 074.0408 240.7196 0040288 137.3310 321.9017 14.33380008167570
0 SL-8 R/B
1 21419U 91041B   13286.03967306  .00000126  00000-0  54558-4 0  3608
2 21419 074.0413 235.4996 0040244 131.2565 300.5512 14.33381458167980
0 SL-8 R/B
1 21419U 91041B   13287.44720186  .00000187  00000-0  76356-4 0  3615
2 21419 074.0415 232.9274 0040220 128.2316 003.7548 14.33382020168187
0 SL-8 R/B
1 21419U 91041B   13289.04125874  .00000225  00000-0  90075-4 0  3624
2 21419 074.0417 230.0143 0040194 124.8571 309.4427 14.33383395168412
0 SL-8 R/B
1 21419U 91041B   13290.16273931  .00000240  00000-0  95493-4 0  3634
2 21419 074.0418 227.9650 0040166 122.4802 336.5401 14.33383626168578
0 SL-8 R/B
1 21419U 91041B   13291.21052831  .00000255  00000-0  10070-3 0  3649
2 21419 074.0418 226.0504 0040156 120.2363 343.3955 14.33383993168727
0 SL-8 R/B
1 21419U 91041B   13292.40212397  .00000240  00000-0  95429-4 0  3653
2 21419 074.0417 223.8730 0040142 117.6871 012.3265 14.33384610168893
0 SL-8 R/B
1 21419U 91041B   13293.85298429  .00000210  00000-0  84743-4 0  3668
2 21419 074.0416 221.2219 0040126 114.6058 299.1093 14.33385479169105
0 SL-8 R/B
1 21419U 91041B   13295.40516030  .00000209  00000-0  84420-4 0  3673
2 21419 074.0416 218.3855 0040101 111.3005 028.7205 14.33386260169321
